H1 CPF  1  SGF 2022  2  5  2  5361 larets    
H2  0304206 5557    27944 2022  2  4  0  0  0 2022  2  9 23 57  0   180 1 1  0 0 0
H9
10 0 59614  76680.00000  0  -2381089.223  -4980314.667  -4420739.869
10 0 59614  76860.00000  0  -2255537.211  -4010273.778  -5369572.710
10 0 59614  77040.00000  0  -2021125.182  -2899959.653  -6122844.462
10 0 59614  77220.00000  0  -1683254.268  -1692368.842  -6653250.840
10 0 59614  77400.00000  0  -1252202.829   -433737.459  -6941551.756
10 0 59614  77580.00000  0   -742822.024    828216.809  -6977221.642
10 0 59614  77760.00000  0   -174034.490   2046073.418  -6758811.817
10 0 59614  77940.00000  0    431849.707   3174459.820  -6294022.357
10 0 59614  78120.00000  0   1049985.065   4171730.783  -5599479.510
10 0 59614  78300.00000  0   1653987.505   5001521.580  -4700205.955
10 0 59614  78480.00000  0   2217041.355   5634121.261  -3628789.865
10 0 59614  78660.00000  0   2713075.901   6047608.056  -2424256.778
10 0 59614  78840.00000  0   3117959.730   6228689.541  -1130672.659
10 0 59614  79020.00000  0   3410654.263   6173197.548    204483.426
10 0 59614  79200.00000  0   3574259.051   5886196.599   1532111.093
10 0 59614  79380.00000  0   3596892.764   5381696.928   2803358.153
10 0 59614  79560.00000  0   3472360.951   4681987.892   3971485.285
10 0 59614  79740.00000  0   3200574.950   3816621.516   4993636.897
10 0 59614  79920.00000  0   2787695.838   2821109.960   5832438.644
10 0 59614  80100.00000  0   2246002.346   1735407.722   6457348.738
10 0 59614  80280.00000  0   1593506.586    602263.646   6845729.094
10 0 59614  80460.00000  0    853327.259   -534486.689   6983611.932
10 0 59614  80640.00000  0     52851.829  -1631617.626   6866156.112
10 0 59614  80820.00000  0   -777285.117  -2648152.299   6497789.104
10 0 59614  81000.00000  0  -1604372.566  -3546884.981   5892028.683
10 0 59614  81180.00000  0  -2394897.537  -4295736.309   5071000.581
10 0 59614  81360.00000  0  -3115895.679  -4868909.773   4064669.092
10 0 59614  81540.00000  0  -3736330.185  -5247806.726   2909775.713
10 0 59614  81720.00000  0  -4228427.271  -5421653.435   1648513.144
10 0 59614  81900.00000  0  -4568910.777  -5387813.986    326984.641
10 0 59614  82080.00000  0  -4740079.163  -5151770.172  -1006499.201
10 0 59614  82260.00000  0  -4730666.476  -4726765.949  -2303219.117
10 0 59614  82440.00000  0  -4536437.664  -4133128.876  -3515862.452
10 0 59614  82620.00000  0  -4160488.204  -3397308.417  -4600266.864
10 0 59614  82800.00000  0  -3613241.152  -2550689.904  -5517021.507
10 0 59614  82980.00000  0  -2912147.322  -1628244.407  -6232868.793
10 0 59614  83160.00000  0  -2081108.018   -667079.625  -6721863.506
10 0 59614  83340.00000  0  -1149645.176    295046.060  -6966259.710
10 0 59614  83520.00000  0   -151856.793   1221185.277  -6957108.268
10 0 59614  83700.00000  0    874807.023   2076593.933  -6694569.603
10 0 59614  83880.00000  0   1890919.745   2830017.490  -6187937.984
10 0 59614  84060.00000  0   2856572.850   3454835.913  -5455363.432
10 0 59614  84240.00000  0   3732935.973   3930024.966  -4523266.924
10 0 59614  84420.00000  0   4483832.742   4240902.907  -3425457.685
10 0 59614  84600.00000  0   5077271.882   4379627.436  -2201956.411
10 0 59614  84780.00000  0   5486855.766   4345409.677   -897551.594
10 0 59614  84960.00000  0   5692992.055   4144428.478    439860.540
10 0 59614  85140.00000  0   5683839.044   3789443.584   1761084.324
10 0 59614  85320.00000  0   5455931.997   3299121.001   3017501.539
10 0 59614  85500.00000  0   5014447.222   2697105.104   4162929.095
10 0 59614  85680.00000  0   4373089.223   2010889.506   5155364.900
10 0 59614  85860.00000  0   3553619.585   1270553.229   5958541.797
10 0 59614  86040.00000  0   2585052.623    507429.395   6543238.569
10 0 59614  86220.00000  0   1502567.450   -247228.948   6888294.083
10 0 59615      0.00000  0    346194.058   -963523.939   6981322.435
10 0 59615    180.00000  0   -840687.600  -1614090.624   6819114.706
10 0 59615    360.00000  0  -2012977.495  -2175133.715   6407718.804
10 0 59615    540.00000  0  -3125556.453  -2627288.275   5762207.948
10 0 59615    720.00000  0  -4135015.309  -2956285.155   4906156.809
10 0 59615    900.00000  0  -5001362.032  -3153403.084   3870811.960
10 0 59615   1080.00000  0  -5689625.946  -3215682.311   2693977.295
10 0 59615   1260.00000  0  -6171298.430  -3145895.255   1418653.739
10 0 59615   1440.00000  0  -6425545.632  -2952275.430     91465.133
10 0 59615   1620.00000  0  -6440123.657  -2648009.422  -1239069.988
10 0 59615   1800.00000  0  -6211947.995  -2250518.253  -2524347.782
10 0 59615   1980.00000  0  -5747280.931  -1780565.254  -3717486.040
10 0 59615   2160.00000  0  -5061538.252  -1261241.034  -4775046.737
10 0 59615   2340.00000  0  -4178731.076   -716877.999  -5658607.803
10 0 59615   2520.00000  0  -3130573.942   -171946.924  -6336126.282
10 0 59615   2700.00000  0  -1955307.131    350011.494  -6783047.849
10 0 59615   2880.00000  0   -696288.912    827373.105  -6983141.727
10 0 59615   3060.00000  0    599589.297   1241301.112  -6929049.845
10 0 59615   3240.00000  0   1883614.252   1576475.220  -6622550.096
10 0 59615   3420.00000  0   3107053.206   1821658.394  -6074529.461
10 0 59615   3600.00000  0   4222990.654   1970081.973  -5304647.941
10 0 59615   3780.00000  0   5188136.899   2019634.098  -4340701.651
10 0 59615   3960.00000  0   5964551.785   1972845.361  -3217685.860
10 0 59615   4140.00000  0   6521205.213   1836665.420  -1976570.098
10 0 59615   4320.00000  0   6835301.716   1622037.752   -662816.260
10 0 59615   4500.00000  0   6893289.051   1343286.125    675314.796
10 0 59615   4680.00000  0   6691484.447   1017341.844   1988592.085
10 0 59615   4860.00000  0   6236286.619    662853.168   3228693.695
10 0 59615   5040.00000  0   5543952.201    299222.293   4350051.631
10 0 59615   5220.00000  0   4639952.210    -54373.106   5311567.448
10 0 59615   5400.00000  0   3557955.108   -379921.398   6078127.945
10 0 59615   5580.00000  0   2338490.303   -661436.020   6621863.986
10 0 59615   5760.00000  0   1027369.260   -885689.876   6923117.189
10 0 59615   5940.00000  0   -326072.561  -1042801.085   6971101.214
10 0 59615   6120.00000  0  -1670845.903  -1126647.595   6764241.789
10 0 59615   6300.00000  0  -2956220.211  -1135097.245   6310201.029
10 0 59615   6480.00000  0  -4133622.576  -1070046.170   5625598.208
10 0 59615   6660.00000  0  -5158476.078   -937270.085   4735430.689
10 0 59615   6840.00000  0  -5991910.315   -746093.761   3672192.201
10 0 59615   7020.00000  0  -6602269.760   -508888.970   2474711.932
10 0 59615   7200.00000  0  -6966361.461   -240422.560   1186753.099
10 0 59615   7380.00000  0  -7070383.736     42915.397   -144594.085
10 0 59615   7560.00000  0  -6910476.028    323965.176  -1470662.237
10 0 59615   7740.00000  0  -6492860.310    585689.806  -2743019.155
10 0 59615   7920.00000  0  -5833574.790    812058.963  -3915263.430
10 0 59615   8100.00000  0  -4957808.423    988880.963  -4944732.420
10 0 59615   8280.00000  0  -3898876.244   1104539.435  -5794040.200
10 0 59615   8460.00000  0  -2696899.696   1150599.027  -6432394.630
10 0 59615   8640.00000  0  -1397257.648   1122254.700  -6836659.460
10 0 59615   8820.00000  0    -48871.062   1018611.914  -6992139.928
10 0 59615   9000.00000  0   1297612.813    842786.379  -6893080.543
10 0 59615   9180.00000  0   2591687.361    601820.364  -6542881.539
10 0 59615   9360.00000  0   3784859.601    306415.249  -5954014.127
10 0 59615   9540.00000  0   4832463.434    -29513.131  -5147630.120
10 0 59615   9720.00000  0   5695357.950   -389444.066  -4152873.169
10 0 59615   9900.00000  0   6341452.675   -755006.410  -3005889.437
10 0 59615  10080.00000  0   6746984.999  -1106850.172  -1748554.372
10 0 59615  10260.00000  0   6897485.289  -1425596.241   -426948.975
10 0 59615  10440.00000  0   6788367.480  -1692814.793    910360.624
10 0 59615  10620.00000  0   6425105.568  -1891981.890   2214167.055
10 0 59615  10800.00000  0   5822977.578  -2009361.003   3436504.003
10 0 59615  10980.00000  0   5006388.115  -2034758.372   4532474.019
10 0 59615  11160.00000  0   4007813.336  -1962113.028   5461931.429
10 0 59615  11340.00000  0   2866436.178  -1789892.616   6190956.845
10 0 59615  11520.00000  0   1626538.016  -1521281.038   6693068.701
10 0 59615  11700.00000  0    335731.419  -1164152.647   6950136.716
10 0 59615  11880.00000  0   -956893.232   -730835.411   6952983.837
10 0 59615  12060.00000  0  -2202634.538   -237674.349   6701670.133
10 0 59615  12240.00000  0  -3355001.288    295588.659   6205466.592
10 0 59615  12420.00000  0  -4371438.073    846599.228   5482523.367
10 0 59615  12600.00000  0  -5214904.722   1391312.098   4559233.579
10 0 59615  12780.00000  0  -5855251.630   1905019.274   3469301.393
10 0 59615  12960.00000  0  -6270333.160   2363443.937   2252536.435
10 0 59615  13140.00000  0  -6446813.388   2743851.859    953411.946
10 0 59615  13320.00000  0  -6380624.038   3026129.049   -380571.637
10 0 59615  13500.00000  0  -6077041.636   3193767.803  -1700652.341
10 0 59615  13680.00000  0  -5550380.819   3234710.262  -2958623.937
10 0 59615  13860.00000  0  -4823316.063   3142005.548  -4108626.532
10 0 59615  14040.00000  0  -3925871.623   2914246.318  -5108825.885
10 0 59615  14220.00000  0  -2894141.088   2555768.089  -5922913.128
10 0 59615  14400.00000  0  -1768808.504   2076608.727  -6521377.584
10 0 59615  14580.00000  0   -593533.499   1492232.508  -6882524.180
10 0 59615  14760.00000  0    586731.314    823030.978  -6993208.133
10 0 59615  14940.00000  0   1727430.541     93622.074  -6849286.445
10 0 59615  15120.00000  0   2786063.121   -668036.542  -6455779.060
10 0 59615  15300.00000  0   3723751.797  -1431695.864  -5826727.264
10 0 59615  15480.00000  0   4506678.234  -2165993.443  -4984752.444
10 0 59615  15660.00000  0   5107340.122  -2839730.589  -3960314.864
99
